COMMENT,ORIGINATOR,NORAD_CAT_ID,OBJECT_NAME,OBJECT_TYPE,CLASSIFICATION_TYPE,INTLDES,EPOCH,EPOCH_MICROSECONDS,MEAN_MOTION,ECCENTRICITY,INCLINATION,RA_OF_ASC_NODE,ARG_OF_PERICENTER,MEAN_ANOMALY,EPHEMERIS_TYPE,ELEMENT_SET_NO,REV_AT_EPOCH,BSTAR,MEAN_MOTION_DOT,MEAN_MOTION_DDOT,FILE,TLE_LINE0,TLE_LINE1,TLE_LINE2,OBJECT_ID,OBJECT_NUMBER,SEMIMAJOR_AXIS,PERIOD,APOGEE,PERIGEE,DECAYED
"GENERATED VIA SPACETRACK.ORG API","18 SPCS","48895","SPACEBEE-108","PAYLOAD","U","21059S","2023-10-04 09:11:51","170496","15.40204891","0.0005864","97.6085","57.781","247.7259","112.3364","0","999","12614","0.0018269","0.00073949","0","4024487","0 SPACEBEE-108","1 48895U 21059S   23277.38323114  .00073949  00000-0  18269-2 0  9997","2 48895  97.6085  57.7810 0005864 247.7259 112.3364 15.40204891126146","2021-059S","48895","6823.641","93.494","449.507","441.505","0"
"GENERATED VIA SPACETRACK.ORG API","18 SPCS","48895","SPACEBEE-108","PAYLOAD","U","21059S","2023-10-04 21:40:16","166496","15.40288043","0.0005886","97.6083","58.3217","247.3337","112.7287","0","999","12622","0.0018999","0.0007715","0","4024820","0 SPACEBEE-108","1 48895U 21059S   23277.90296489  .00077150  00000-0  18999-2 0  9997","2 48895  97.6083  58.3217 0005886 247.3337 112.7287 15.40288043126227","2021-059S","48895","6823.396","93.489","449.277","441.244","0"
"GENERATED VIA SPACETRACK.ORG API","18 SPCS","48895","SPACEBEE-108","PAYLOAD","U","21059S","2023-10-05 08:35:05","921088","15.4037092","0.0005941","97.6084","58.7941","245.7616","114.3009","0","999","12629","0.0021619","0.00088167","0","4025208","0 SPACEBEE-108","1 48895U 21059S   23278.35770742  .00088167  00000-0  21619-2 0  9999","2 48895  97.6084  58.7941 0005941 245.7616 114.3009 15.40370920126293","2021-059S","48895","6823.151","93.484","449.069","440.962","0"
"GENERATED VIA SPACETRACK.ORG API","18 SPCS","48895","SPACEBEE-108","PAYLOAD","U","21059S","2023-10-05 08:35:05","921088","15.4037092","0.0005941","97.6084","58.7941","245.7616","114.3009","0","999","12629","0.0021619","0.00088167","0","4025515","0 SPACEBEE-108","1 48895U 21059S   23278.35770742  .00088167  00000-0  21619-2 0  9999","2 48895  97.6084  58.7941 0005941 245.7616 114.3009 15.40370920126293","2021-059S","48895","6823.151","93.484","449.069","440.962","0"
"GENERATED VIA SPACETRACK.ORG API","18 SPCS","48895","SPACEBEE-108","PAYLOAD","U","21059S","2023-10-05 21:03:26","89056","15.40456887","0.0005879","97.6083","59.335","245.0802","114.9833","0","999","12637","0.0020044","0.00081902","0","4025843","0 SPACEBEE-108","1 48895U 21059S   23278.87738529  .00081902  00000-0  20044-2 0  9994","2 48895  97.6083  59.3350 0005879 245.0802 114.9833 15.40456887126370","2021-059S","48895","6822.897","93.479","448.773","440.751","0"
"GENERATED VIA SPACETRACK.ORG API","18 SPCS","48895","SPACEBEE-108","PAYLOAD","U","21059S","2023-10-06 07:58:11","634240","15.40531942","0.0005865","97.6083","59.8075","242.7324","117.3325","0","999","12644","0.0018412","0.00075348","0","4026146","0 SPACEBEE-108","1 48895U 21059S   23279.33207910  .00075348  00000-0  18412-2 0  9994","2 48895  97.6083  59.8075 0005865 242.7324 117.3325 15.40531942126444","2021-059S","48895","6822.675","93.474","448.542","440.539","0"
"GENERATED VIA SPACETRACK.ORG API","18 SPCS","48895","SPACEBEE-108","PAYLOAD","U","21059S","2023-10-06 07:58:11","634240","15.40531942","0.0005865","97.6083","59.8075","242.7324","117.3325","0","999","12644","0.0018412","0.00075348","0","4026447","0 SPACEBEE-108","1 48895U 21059S   23279.33207910  .00075348  00000-0  18412-2 0  9994","2 48895  97.6083  59.8075 0005865 242.7324 117.3325 15.40531942126444","2021-059S","48895","6822.675","93.474","448.542","440.539","0"
"GENERATED VIA SPACETRACK.ORG API","18 SPCS","48895","SPACEBEE-108","PAYLOAD","U","21059S","2023-10-06 21:59:59","2368","15.40622075","0.00058","97.6079","60.416","242.064","118.0019","0","999","12653","0.0020041","0.00082339","0","4026736","0 SPACEBEE-108","1 48895U 21059S   23279.91665512  .00082339  00000-0  20041-2 0  9993","2 48895  97.6079  60.4160 0005800 242.0640 118.0019 15.40622075126531","2021-059S","48895","6822.409","93.469","448.231","440.317","0"
"GENERATED VIA SPACETRACK.ORG API","18 SPCS","48895","SPACEBEE-108","PAYLOAD","U","21059S","2023-10-07 08:54:40","351968","15.40696055","0.0005823","97.6079","60.8886","240.2397","119.827","0","999","12660","0.0018522","0.00076218","0","4027101","0 SPACEBEE-108","1 48895U 21059S   23280.37130037  .00076218  00000-0  18522-2 0  9994","2 48895  97.6079  60.8886 0005823 240.2397 119.8270 15.40696055126609","2021-059S","48895","6822.191","93.464","448.028","440.083","0"
"GENERATED VIA SPACETRACK.ORG API","18 SPCS","48895","SPACEBEE-108","PAYLOAD","U","21059S","2023-10-07 08:54:40","351968","15.40696055","0.0005823","97.6079","60.8886","240.2397","119.827","0","999","12660","0.0018522","0.00076218","0","4027321","0 SPACEBEE-108","1 48895U 21059S   23280.37130037  .00076218  00000-0  18522-2 0  9994","2 48895  97.6079  60.8886 0005823 240.2397 119.8270 15.40696055126609","2021-059S","48895","6822.191","93.464","448.028","440.083","0"
"GENERATED VIA SPACETRACK.ORG API","18 SPCS","48895","SPACEBEE-108","PAYLOAD","U","21059S","2023-10-07 21:22:51","129984","15.4077521","0.000575","97.6078","61.4298","239.6358","120.4319","0","999","12668","0.0018724","0.0007726","0","4027648","0 SPACEBEE-108","1 48895U 21059S   23280.89086956  .00077260  00000-0  18724-2 0  9993","2 48895  97.6078  61.4298 0005750 239.6358 120.4319 15.40775210126681","2021-059S","48895","6821.957","93.459","447.745","439.900","0"
"GENERATED VIA SPACETRACK.ORG API","18 SPCS","48895","SPACEBEE-108","PAYLOAD","U","21059S","2023-10-08 08:17:28","469760","15.40856055","0.0005759","97.6078","61.9024","238.1198","121.9488","0","999","12675","0.0020086","0.00083172","0","4028089","0 SPACEBEE-108","1 48895U 21059S   23281.34546840  .00083172  00000-0  20086-2 0  9990","2 48895  97.6078  61.9024 0005759 238.1198 121.9488 15.40856055126756","2021-059S","48895","6821.719","93.455","447.512","439.655","0"
"GENERATED VIA SPACETRACK.ORG API","18 SPCS","48895","SPACEBEE-108","PAYLOAD","U","21059S","2023-10-08 08:17:28","469760","15.40856055","0.0005759","97.6078","61.9024","238.1198","121.9488","0","999","12675","0.0020086","0.00083172","0","4028261","0 SPACEBEE-108","1 48895U 21059S   23281.34546840  .00083172  00000-0  20086-2 0  9990","2 48895  97.6078  61.9024 0005759 238.1198 121.9488 15.40856055126756","2021-059S","48895","6821.719","93.455","447.512","439.655","0"
"GENERATED VIA SPACETRACK.ORG API","18 SPCS","48895","SPACEBEE-108","PAYLOAD","U","21059S","2023-10-08 20:45:34","456896","15.40944019","0.0005642","97.6077","62.4436","237.2723","122.7979","0","999","12683","0.0020524","0.00085256","0","4028564","0 SPACEBEE-108","1 48895U 21059S   23281.86498214  .00085256  00000-0  20524-2 0  9990","2 48895  97.6077  62.4436 0005642 237.2723 122.7979 15.40944019126834","2021-059S","48895","6821.459","93.449","447.173","439.475","0"
"GENERATED VIA SPACETRACK.ORG API","18 SPCS","48895","SPACEBEE-108","PAYLOAD","U","21059S","2023-10-09 09:13:37","822656","15.41034992","0.0005695","97.6075","62.9837","236.0117","124.0588","0","999","12691","0.0019921","0.00082974","0","4029020","0 SPACEBEE-108","1 48895U 21059S   23282.38446554  .00082974  00000-0  19921-2 0  9991","2 48895  97.6075  62.9837 0005695 236.0117 124.0588 15.41034992126915","2021-059S","48895","6821.190","93.444","446.940","439.171","0"
"GENERATED VIA SPACETRACK.ORG API","18 SPCS","48895","SPACEBEE-108","PAYLOAD","U","21059S","2023-10-09 09:13:37","822656","15.41034992","0.0005695","97.6075","62.9837","236.0117","124.0588","0","999","12691","0.0019921","0.00082974","0","4029150","0 SPACEBEE-108","1 48895U 21059S   23282.38446554  .00082974  00000-0  19921-2 0  9991","2 48895  97.6075  62.9837 0005695 236.0117 124.0588 15.41034992126915","2021-059S","48895","6821.190","93.444","446.940","439.171","0"
"GENERATED VIA SPACETRACK.ORG API","18 SPCS","48895","SPACEBEE-108","PAYLOAD","U","21059S","2023-10-09 21:41:38","484960","15.41130313","0.000564","97.6074","63.5248","235.6982","124.3731","0","999","12699","0.0021242","0.00088827","0","4029504","0 SPACEBEE-108","1 48895U 21059S   23282.90391765  .00088827  00000-0  21242-2 0  9994","2 48895  97.6074  63.5248 0005640 235.6982 124.3731 15.41130313126997","2021-059S","48895","6820.909","93.438","446.621","438.927","0"
"GENERATED VIA SPACETRACK.ORG API","18 SPCS","48895","SPACEBEE-108","PAYLOAD","U","21059S","2023-10-09 23:15:08","354016","15.41143308","0.0005658","97.6074","63.5923","235.6407","124.4304","0","999","12700","0.0021382","0.00089459","0","4029547","0 SPACEBEE-108","1 48895U 21059S   23282.96884669  .00089459  00000-0  21382-2 0  9997","2 48895  97.6074  63.5923 0005658 235.6407 124.4304 15.41143308127006","2021-059S","48895","6820.871","93.437","446.595","438.877","0"
"GENERATED VIA SPACETRACK.ORG API","18 SPCS","48895","SPACEBEE-108","PAYLOAD","U","21059S","2023-10-10 08:36:06","813216","15.41211623","0.0005675","97.6076","63.9976","233.9779","126.0942","0","999","12706","0.0020323","0.00085169","0","4030143","0 SPACEBEE-108","1 48895U 21059S   23283.35841219  .00085169  00000-0  20323-2 0  9993","2 48895  97.6076  63.9976 0005675 233.9779 126.0942 15.41211623127060","2021-059S","48895","6820.669","93.433","446.405","438.664","0"
"GENERATED VIA SPACETRACK.ORG API","18 SPCS","48895","SPACEBEE-108","PAYLOAD","U","21059S","2023-10-11 09:31:55","301376","15.41393345","0.0005525","97.6078","65.0793","230.8466","129.2289","0","999","12722","0.001861","0.00078382","0","4030812","0 SPACEBEE-108","1 48895U 21059S   23284.39716784  .00078382  00000-0  18610-2 0  9991","2 48895  97.6078  65.0793 0005525 230.8466 129.2289 15.41393345127224","2021-059S","48895","6820.133","93.422","445.766","438.230","0"
